[{"OBJECT_NAME":"KL-BETA B","OBJECT_ID":"2021-070B","EPOCH":"2026-03-09T22:27:50.032800","MEAN_MOTION":13.94701565,"ECCENTRICITY":0.00070924,"INCLINATION":88.9968,"RA_OF_ASC_NODE":229.226,"ARG_OF_PERICENTER":75.7139,"MEAN_ANOMALY":284.4824,"EPHEMERIS_TYPE":0,"CLASSIFICATION_TYPE":"U","NORAD_CAT_ID":49060,"ELEMENT_SET_NO":999,"REV_AT_EPOCH":23413,"BSTAR":4.5437163e-5,"MEAN_MOTION_DOT":7.4e-7,"MEAN_MOTION_DDOT":0},{"OBJECT_NAME":"FENGYUN 1C DEB","OBJECT_ID":"1999-025AZV","EPOCH":"2026-03-06T10:48:08.570016","MEAN_MOTION":14.01712814,"ECCENTRICITY":0.00948171,"INCLINATION":99.1608,"RA_OF_ASC_NODE":128.363,"ARG_OF_PERICENTER":169.2356,"MEAN_ANOMALY":207.2557,"EPHEMERIS_TYPE":0,"CLASSIFICATION_TYPE":"U","NORAD_CAT_ID":30931,"ELEMENT_SET_NO":999,"REV_AT_EPOCH":97098,"BSTAR":0.00095084409,"MEAN_MOTION_DOT":1.455e-5,"MEAN_MOTION_DDOT":0}]
